{
  "norad_id": 66647,
  "name": "COSMOS 2597 (RODNIK-S 22)",
  "history": [
    {
      "epoch": "2026-03-28T17:51:01.602720",
      "apogee_km": 1503.728621654429,
      "perigee_km": 1484.9599964151848,
      "latitude_deg": -40.04053742859621,
      "longitude_deg": -163.898219200084,
      "semi_major_axis_km": 7872.481309034806,
      "eccentricity": 0.00119204,
      "inclination_deg": 82.5001,
      "raan_deg": 220.5282,
      "arg_perigee_deg": 38.8052,
      "mean_anomaly_deg": 321.3881,
      "mean_motion_rev_day": 12.42897472
    }
  ]
}