{"fetched_at":"2026-03-29T16:36:15Z","count":15609,"tles":[{"name":"COSMOS 2597 (RODNIK-S *)","line1":"1 66647U 25273A   26087.74376855  .00000031  00000+0  15162-3 0  9997","line2":"2 66647  82.5001 220.5282 0011920  38.8052 321.3881 12.42897472 15308","category":"Other"}]}